DIAMOND BLUE            
1 42786U 17036X   24103.08544632  .01412958  14399-2  13544-2 0  9993
2 42786  97.0938 143.2733 0006679 209.4451 150.6459 16.12115173379480
CICERO 6                
1 42793U 17036AE  24103.04262211  .00092972  00000+0  77465-3 0  9990
2 42793  97.0991 139.7224 0005149 106.9609 253.2219 15.69797357379350
CORVUS BC2              
1 42846U 17042X   24102.83184121  .00002630  00000+0  23333-3 0  9992
2 42846  97.3754 291.6609 0007182 285.3329  74.7099 14.96964940367514
CORVUS BC1              
1 42847U 17042Y   24103.06698584  .00003724  00000+0  32726-3 0  9993
2 42847  97.3743 292.2752 0006557 280.4325  79.6159 14.97110349367569
MIRATA                  
1 43015U 17073C   24102.63412606  .00019730  00000+0  99596-3 0  9998
2 43015  97.6034 348.2867 0180664 127.5893 234.1893 15.03954630346315
MAKERSAT 0              
1 43016U 17073D   24103.19306087  .00009590  00000+0  56717-3 0  9997
2 43016  97.5894 344.0828 0203640 144.0318 217.4809 14.95824916346039
CORVUS BC3              
1 43118U 18004H   24103.19863952  .00100309  00000+0  85929-3 0  9991
2 43118  97.2902 186.7030 0004242 142.5910 217.5648 15.69102712348504
GOMX-4B                 
1 43196U 18015E   24102.43290294  .00042759  00000+0  63636-3 0  9993
2 43196  97.6056 271.3767 0009952 199.9254 160.1612 15.54967614345125
GOMX-4A                 
1 43197U 18015F   24103.15164723  .00060633  00000+0  68249-3 0  9997
2 43197  97.5986 276.3337 0008697 191.0264 169.0804 15.62339544345523
CICERO 10               
1 43690U 18088A   24102.84524310  .00072957  00000+0  82618-3 0  9990
2 43690  85.0182 226.7145 0008592 186.2138 173.9020 15.62111370301797
PROXIMA I               
1 43694U 18088E   24102.78221355  .00187053  00000+0  10906-2 0  9994
2 43694  85.0096 220.1864 0004647 182.4567 177.6683 15.77894878302257
PROXIMA II              
1 43696U 18088G   24102.79783409  .00193389  00000+0  11838-2 0  9994
2 43696  85.0108 220.3319 0004437 180.4200 179.7069 15.76775266302236
SIRION PATHFINDER-2     
1 43759U 18099B   24102.88769906  .00004275  00000+0  33209-3 0  9994
2 43759  97.5386 160.9152 0013983 149.2444 210.9603 15.01765700292550
CORVUS BC4              
1 43767U 18099K   24102.89216941  .00004300  00000+0  33991-3 0  9997
2 43767  97.5213 158.3197 0008485 227.1743 132.8769 15.01135668292444
MOVE-II                 
1 43780U 18099Y   24102.68113668  .00013514  00000+0  77820-3 0  9997
2 43780  97.5268 166.4216 0007667 195.6274 164.4721 15.12518164292863
SPACEBEE-7              
1 43816U 18099BL  24102.62867804  .00010977  00000+0  69314-3 0  9998
2 43816  97.5541 167.2288 0011817 152.3091 207.8769 15.09187731292361
SPACEBEE-6              
1 43818U 18099BN  24102.70192247  .00021439  00000+0  10497-2 0  9993
2 43818  97.5463 171.6554 0010897 160.3245 199.8412 15.18142548292809
SHIELDS 1               
1 43850U 18104B   24102.89674734  .00010865  00000+0  31363-3 0  9999
2 43850  85.0235 328.0446 0009942 331.7386  28.3322 15.35478614295984
ZACUBE-2                
1 43907U 18111AH  24102.60188832  .00475693  93116-4  12347-2 0  9997
2 43907  97.0733 345.8930 0007870 164.5326 195.6193 15.94995565295711
SONATE                  
1 44400U 19038Q   24102.93354408  .00017779  00000+0  59726-3 0  9990
2 44400  97.7129  94.2378 0016166 349.7310  10.3598 15.30783973263934
LUCKY-7                 
1 44406U 19038W   24102.88943069  .00029148  00000+0  77102-3 0  9998
2 44406  97.7049  97.4511 0012517 337.9614  22.1091 15.38281825264158
BEESAT 9                
1 44412U 19038AC  24102.91913699  .00131802  00000+0  13145-2 0  9992
2 44412  97.6842 104.6343 0002200 313.8788  46.2289 15.65227040264360
JAISAT-1                
1 44419U 19038F   24102.93876050  .00118533  00000+0  12362-2 0  9996
2 44419  97.6831 105.6815 0002242 317.2819  42.8265 15.64135824264744
DUCHIFAT-3              
1 44854U 19089C   24103.16177640  .00012496  00000+0  68219-3 0  9994
2 44854  36.9584  89.1307 0010203 262.1002  97.8586 15.13716330238184
M2 PATHFINDER           
1 45727U 20037E   24103.07276389  .00002348  00000+0  21176-3 0  9995
2 45727  97.7738 279.8965 0011060 349.7526  10.3468 14.96475640206059
NETSAT-4                
1 46504U 20068U   24103.12792189  .00008550  00000+0  48282-3 0  9998
2 46504  97.8018  58.5933 0008514 218.0447 142.0183 15.13354341194172
NETSAT-3                
1 46505U 20068V   24102.82515282  .00009420  00000+0  53854-3 0  9990
2 46505  97.7987  57.8694 0007645 230.3490 129.7066 15.12886244194120
NETSAT-1                
1 46506U 20068W   24103.14074380  .00006832  00000+0  40607-3 0  9992
2 46506  97.8016  57.8018 0006184 240.6025 119.4588 15.11602681194147
NETSAT-2                
1 46507U 20068X   24102.87675675  .00009435  00000+0  53397-3 0  9998
2 46507  97.8004  57.9907 0005257 247.7056 112.3617 15.13263965194083
WILDTRACKCUBE-SIMBA     
1 47941U 21022K   24103.22598665  .00010620  00000+0  50745-3 0  9997
2 47941  97.4673   0.6650 0016977  22.8119 337.3866 15.19077680168446
BEESAT-6                
1 47957U 21022AB  24102.71569214  .00081643  00000+0  16166-2 0  9996
2 47957  97.4517   8.1281 0008352  15.9524 344.1987 15.46747335168715
SMOG-1                  
1 47964U 21022AJ  24102.49004121  .00072319  00000+0  14354-2 0  9997
2 47964  97.4704  10.9320 0006524 358.9455   1.1779 15.46730606167865
BCCSAT-1                
1 48041U 21022AK  24102.68147957  .00046540  00000+0  12301-2 0  9997
2 48041  97.4697   8.1108 0007219 359.3339   0.7895 15.38254217167677
BEESAT-5                
1 48083U 21022AM  24102.49062968  .00112205  00000+0  18173-2 0  9995
2 48083  97.4316   8.8004 0006732  18.4200 341.7295 15.52376804167914
BEESAT-7                
1 48084U 21022AN  24102.67721480  .00055428  00000+0  12039-2 0  9995
2 48084  97.4647   8.3734 0008452   4.8539 355.2789 15.44140691167442
BEESAT-8                
1 48085U 21022AP  24102.66051836  .00024136  00000+0  88750-3 0  9992
2 48085  97.4793   4.2699 0013688  15.0588 345.1055 15.27797718167707
LEDSAT                  
1 49069U 21073D   24103.17838909  .00012699  00000+0  55596-3 0  9995
2 49069  97.4417 174.8674 0021542 153.9199 206.3127 15.21957860146400
SITRO-AIS 5 (KATYS)     
1 57176U 23091L   24103.19365045  .00005681  00000+0  38179-3 0  9994
2 57176  97.6198 155.9847 0017359 352.4587   7.6377 15.07047663 43552
SITRO-AIS 6 (CHIRKIN)   
1 57192U 23091AC  24103.18148799  .00005673  00000+0  38068-3 0  9994
2 57192  97.6190 155.9929 0017219 351.5845   8.5091 15.07108265 43554
SITRO-AIS 8 (ANOKHIN)   
1 57193U 23091AD  24103.16133854  .00007342  00000+0  48842-3 0  9995
2 57193  97.6191 156.0128 0016986 352.2115   7.8846 15.07331141 43558
SITRO-AIS 7 (FARTUSHNIY)
1 57194U 23091AE  24103.18468860  .00005452  00000+0  36641-3 0  9990
2 57194  97.6190 155.9833 0017082 352.4127   7.6839 15.07070658 43555
SITRO-AIS 10 (BURDAEV)  
1 57199U 23091AK  24103.20799147  .00007047  00000+0  44897-3 0  9997
2 57199  97.6211 156.7707 0011641 343.2466  16.8376 15.09004840 43608
SITRO-AIS 9 (SHCHUKIN)  
1 57201U 23091AM  24103.13956455  .00006913  00000+0  44046-3 0  9997
2 57201  97.6206 156.6887 0011603 343.4298  16.6550 15.09008851 43593
SITRO-AIS 12 (SMIRENNIY)
1 57204U 23091AQ  24103.17632471  .00007153  00000+0  45353-3 0  9992
2 57204  97.6206 156.8304 0011515 335.6873  24.3810 15.09176026 43603
SITRO-AIS 11 (SHEFFER)  
1 57208U 23091AU  24103.16544555  .00008088  00000+0  51134-3 0  9992
2 57208  97.6207 156.8354 0011361 336.0393  24.0305 15.09242043 43603
SITRO-AIS B             
1 59052U 24039B   24103.19854786  .00017205  00000+0  70574-3 0  9997
2 59052  97.3884  65.9324 0022399  89.9594 270.4211 15.24076205  6533
SITRO-AIS C             
1 59053U 24039C   24103.19823724  .00017612  00000+0  72182-3 0  9995
2 59053  97.3882  65.9312 0022488  90.6009 269.7805 15.24097854  6520
SITRO-AIS 31            
1 59054U 24039D   24103.19595839  .00018495  00000+0  75580-3 0  9994
2 59054  97.3882  65.9342 0022315  90.6081 269.7714 15.24188157  6541
SITRO-AIS 33            
1 59055U 24039E   24103.19321463  .00018294  00000+0  74548-3 0  9995
2 59055  97.3884  65.9395 0022054  91.1313 269.2451 15.24291643  6533
SITRO-AIS F             
1 59056U 24039F   24103.19154595  .00019316  00000+0  78586-3 0  9998
2 59056  97.3884  65.9410 0021869  91.2435 269.1308 15.24337262  6539
SITRO-AIS G             
1 59057U 24039G   24103.19313755  .00018355  00000+0  74849-3 0  9994
2 59057  97.3884  65.9390 0021806  91.3228 269.0508 15.24271945  6535
SITRO-AIS 35            
1 59058U 24039H   24103.19224252  .00017969  00000+0  73164-3 0  9997
2 59058  97.3884  65.9414 0021993  91.2688 269.1070 15.24324104  6530
SITRO-AIS 36            
1 59059U 24039J   24103.18972432  .00018475  00000+0  75065-3 0  9992
2 59059  97.3884  65.9438 0021561  91.3616 269.0092 15.24398287  6536
SITRO-AIS 49            
1 59060U 24039K   24103.18905203  .00018138  00000+0  73666-3 0  9997
2 59060  97.3884  65.9444 0021529  91.2599 269.1105 15.24416525  6530
SITRO-AIS 50            
1 59061U 24039L   24103.18729163  .00019484  00000+0  78854-3 0  9996
2 59061  97.3884  65.9468 0021535  91.4998 268.8706 15.24519059  6538
SITRO-AIS 51            
1 59062U 24039M   24103.18647657  .00018284  00000+0  73986-3 0  9992
2 59062  97.3883  65.9481 0021459  91.2323 269.1373 15.24539975  6531
SITRO-AIS 52            
1 59063U 24039N   24103.18437802  .00018543  00000+0  74872-3 0  9995
2 59063  97.3884  65.9506 0021290  91.0368 269.3309 15.24613116  6532
SITRO-AIS 25            
1 59066U 24039R   24103.18819667  .00003157  00000+0  31133-3 0  9999
2 59066  95.3991  52.7119 0173292 209.1632 149.9826 14.81758677  6331
SITRO-AIS 26            
1 59067U 24039S   24103.18763658  .00002970  00000+0  29323-3 0  9998
2 59067  95.3991  52.7120 0173085 209.1932 149.9530 14.81770409  6336
